{"type": "FeatureCollection", "features": [ {"type": "Feature", "properties": {"norad_id": 43262, "name": "GAOFEN-1 04", "group": "resource", "lat": 50.04215112220866, "lon": 36.38807813214515, "alt_km": 635.2387590622084, "timestamp": "2025-12-14T07:33:19.135597+00:00", "meta": {"OBJECT_NAME": "GAOFEN-1 04", "OBJECT_ID": "2018-031D", "EPOCH": "2025-12-13T16:41:16.418688", "MEAN_MOTION": 14.76454601, "ECCENTRICITY": 0.00010404, "INCLINATION": 98.0805, "RA_OF_ASC_NODE": 45.5309, "ARG_OF_PERICENTER": 56.8588, "MEAN_ANOMALY": 303.2721, "EPHEMERIS_TYPE": 0, "CLASSIFICATION_TYPE": "U", "NORAD_CAT_ID": 43262, "ELEMENT_SET_NO": 999, "REV_AT_EPOCH": 41531, "BSTAR": 0.00025020635, "MEAN_MOTION_DOT": 1.689e-05, "MEAN_MOTION_DDOT": 0}, "tle": {"line1": "1 43262U 18031D   25347.69532892  .00001689  00000+0  25021-3 0  9991", "line2": "2 43262  98.0805  45.5309 0001040  56.8588 303.2721 14.76454601415310"}}, "geometry": {"type": "Point", "coordinates": [36.38807813214515, 50.04215112220866]}}, {"type": "Feature", "properties": {"norad_id": 43437, "name": "SENTINEL-3B", "group": "resource", "lat": -62.78607011175553, "lon": 70.64829328437403, "alt_km": 810.9420314039135, "timestamp": "2025-12-14T07:33:19.135609+00:00", "meta": {"OBJECT_NAME": "SENTINEL-3B", "OBJECT_ID": "2018-039A", "EPOCH": "2025-12-13T15:01:26.827680", "MEAN_MOTION": 14.26734448, "ECCENTRICITY": 0.00016256, "INCLINATION": 98.6269, "RA_OF_ASC_NODE": 52.7987, "ARG_OF_PERICENTER": 100.8299, "MEAN_ANOMALY": 259.3065, "EPHEMERIS_TYPE": 0, "CLASSIFICATION_TYPE": "U", "NORAD_CAT_ID": 43437, "ELEMENT_SET_NO": 999, "REV_AT_EPOCH": 39766, "BSTAR": 0.00010611124, "MEAN_MOTION_DOT": 2.13e-06, "MEAN_MOTION_DDOT": 0}, "tle": {"line1": "1 43437U 18039A   25347.62600495  .00000213  00000+0  10611-3 0  9992", "line2": "2 43437  98.6269  52.7987 0001625 100.8299 259.3065 14.26734448397668"}}, "geometry": {"type": "Point", "coordinates": [70.64829328437403, -62.78607011175553]}}, {"type": "Feature", "properties": {"norad_id": 43461, "name": "GAOFEN-5 01", "group": "resource", "lat": 62.95688581448695, "lon": 148.20388105523008, "alt_km": 686.1882287975577, "timestamp": "2025-12-14T07:33:19.135620+00:00", "meta": {"OBJECT_NAME": "GAOFEN-5 01", "OBJECT_ID": "2018-043A", "EPOCH": "2025-12-13T14:35:01.668480", "MEAN_MOTION": 14.60411084, "ECCENTRICITY": 8.951e-05, "INCLINATION": 98.4327, "RA_OF_ASC_NODE": 310.59, "ARG_OF_PERICENTER": 336.2599, "MEAN_ANOMALY": 23.8559, "EPHEMERIS_TYPE": 0, "CLASSIFICATION_TYPE": "U", "NORAD_CAT_ID": 43461, "ELEMENT_SET_NO": 999, "REV_AT_EPOCH": 40460, "BSTAR": 0.00015315658, "MEAN_MOTION_DOT": 6.93e-06, "MEAN_MOTION_DDOT": 0}, "tle": {"line1": "1 43461U 18043A   25347.60765820  .00000693  00000+0  15316-3 0  9995", "line2": "2 43461  98.4327 310.5900 0000895 336.2599  23.8559 14.60411084404605"}}, "geometry": {"type": "Point", "coordinates": [148.20388105523008, 62.95688581448695]}}, {"type": "Feature", "properties": {"norad_id": 43484, "name": "GAOFEN-6", "group": "resource", "lat": -22.583245052120258, "lon": -130.74112151620662, "alt_km": 653.0561883887249, "timestamp": "2025-12-14T07:33:19.135631+00:00", "meta": {"OBJECT_NAME": "GAOFEN-6", "OBJECT_ID": "2018-048A", "EPOCH": "2025-12-13T16:00:13.558176", "MEAN_MOTION": 14.76569744, "ECCENTRICITY": 0.0013182, "INCLINATION": 97.8028, "RA_OF_ASC_NODE": 51.9022, "ARG_OF_PERICENTER": 61.0345, "MEAN_ANOMALY": 299.2185, "EPHEMERIS_TYPE": 0, "CLASSIFICATION_TYPE": "U", "NORAD_CAT_ID": 43484, "ELEMENT_SET_NO": 999, "REV_AT_EPOCH": 40601, "BSTAR": 0.00021746272, "MEAN_MOTION_DOT": 1.47e-05, "MEAN_MOTION_DDOT": 0}, "tle": {"line1": "1 43484U 18048A   25347.66682359  .00001470  00000+0  21746-3 0  9994", "line2": "2 43484  97.8028  51.9022 0013182  61.0345 299.2185 14.76569744406012"}}, "geometry": {"type": "Point", "coordinates": [-130.74112151620662, -22.583245052120258]}}, {"type": "Feature", "properties": {"norad_id": 43585, "name": "GAOFEN-11 01", "group": "resource", "lat": 59.765985133417345, "lon": 38.78696283790317, "alt_km": 414.30678830166653, "timestamp": "2025-12-14T07:33:19.135642+00:00", "meta": {"OBJECT_NAME": "GAOFEN-11 01", "OBJECT_ID": "2018-063A", "EPOCH": "2025-12-13T15:47:36.300192", "MEAN_MOTION": 15.49250042, "ECCENTRICITY": 0.00043398, "INCLINATION": 97.156, "RA_OF_ASC_NODE": 50.5849, "ARG_OF_PERICENTER": 309.6059, "MEAN_ANOMALY": 50.4809, "EPHEMERIS_TYPE": 0, "CLASSIFICATION_TYPE": "U", "NORAD_CAT_ID": 43585, "ELEMENT_SET_NO": 999, "REV_AT_EPOCH": 41156, "BSTAR": 0.00020979417, "MEAN_MOTION_DOT": 0.00011366, "MEAN_MOTION_DDOT": 0}, "tle": {"line1": "1 43585U 18063A   25347.65805903  .00011366  00000+0  20979-3 0  9996", "line2": "2 43585  97.1560  50.5849 0004339 309.6059  50.4809 15.49250042411562"}}, "geometry": {"type": "Point", "coordinates": [38.78696283790317, 59.765985133417345]}}, {"type": "Feature", "properties": {"norad_id": 43613, "name": "ICESAT-2", "group": "resource", "lat": 37.5778942043519, "lon": -120.3820434225313, "alt_km": 478.6317542548577, "timestamp": "2025-12-14T07:33:19.135653+00:00", "meta": {"OBJECT_NAME": "ICESAT-2", "OBJECT_ID": "2018-070A", "EPOCH": "2025-12-13T15:40:34.936896", "MEAN_MOTION": 15.28269148, "ECCENTRICITY": 0.00023887, "INCLINATION": 92.0046, "RA_OF_ASC_NODE": 240.9839, "ARG_OF_PERICENTER": 139.3567, "MEAN_ANOMALY": 220.7861, "EPHEMERIS_TYPE": 0, "CLASSIFICATION_TYPE": "U", "NORAD_CAT_ID": 43613, "ELEMENT_SET_NO": 999, "REV_AT_EPOCH": 40412, "BSTAR": 0.0005789005, "MEAN_MOTION_DOT": 0.00015949, "MEAN_MOTION_DDOT": 0}, "tle": {"line1": "1 43613U 18070A   25347.65318214  .00015949  00000+0  57890-3 0  9993", "line2": "2 43613  92.0046 240.9839 0002388 139.3567 220.7861 15.28269148404123"}}, "geometry": {"type": "Point", "coordinates": [-120.3820434225313, 37.5778942043519]}}, {"type": "Feature", "properties": {"norad_id": 43719, "name": "HYSIS", "group": "resource", "lat": -68.30054642218178, "lon": -149.43746004440519, "alt_km": 641.7212256608955, "timestamp": "2025-12-14T07:33:19.135670+00:00", "meta": {"OBJECT_NAME": "HYSIS", "OBJECT_ID": "2018-096A", "EPOCH": "2025-12-13T15:48:45.228384", "MEAN_MOTION": 14.78651372, "ECCENTRICITY": 0.00013105, "INCLINATION": 98.0094, "RA_OF_ASC_NODE": 50.6317, "ARG_OF_PERICENTER": 56.0307, "MEAN_ANOMALY": 304.1028, "EPHEMERIS_TYPE": 0, "CLASSIFICATION_TYPE": "U", "NORAD_CAT_ID": 43719, "ELEMENT_SET_NO": 999, "REV_AT_EPOCH": 38000, "BSTAR": 0.0003647415, "MEAN_MOTION_DOT": 2.621e-05, "MEAN_MOTION_DDOT": 0}, "tle": {"line1": "1 43719U 18096A   25347.65885681  .00002621  00000+0  36474-3 0  9993", "line2": "2 43719  98.0094  50.6317 0001310  56.0307 304.1028 14.78651372380007"}}, "geometry": {"type": "Point", "coordinates": [-149.43746004440519, -68.30054642218178]}}, {"type": "Feature", "properties": {"norad_id": 43783, "name": "KAZSTSAT", "group": "resource", "lat": -62.128003690357744, "lon": -170.90476260326366, "alt_km": 575.4447770722563, "timestamp": "2025-12-14T07:33:19.135681+00:00", "meta": {"OBJECT_NAME": "KAZSTSAT", "OBJECT_ID": "2018-099AB", "EPOCH": "2025-12-13T16:03:32.476032", "MEAN_MOTION": 14.99356378, "ECCENTRICITY": 0.00058971, "INCLINATION": 97.4559, "RA_OF_ASC_NODE": 22.8146, "ARG_OF_PERICENTER": 326.2955, "MEAN_ANOMALY": 33.7893, "EPHEMERIS_TYPE": 0, "CLASSIFICATION_TYPE": "U", "NORAD_CAT_ID": 43783, "ELEMENT_SET_NO": 999, "REV_AT_EPOCH": 38350, "BSTAR": 0.00014501678, "MEAN_MOTION_DOT": 1.718e-05, "MEAN_MOTION_DDOT": 0}, "tle": {"line1": "1 43783U 18099AB  25347.66912588  .00001718  00000+0  14502-3 0  9999", "line2": "2 43783  97.4559  22.8146 0005897 326.2955  33.7893 14.99356378383507"}}, "geometry": {"type": "Point", "coordinates": [-170.90476260326366, -62.128003690357744]}}, {"type": "Feature", "properties": {"norad_id": 43831, "name": "SAUDISAT 5A", "group": "resource", "lat": 81.00285423428635, "lon": -5.976671222223998, "alt_km": 473.48980847387156, "timestamp": "2025-12-14T07:33:19.135692+00:00", "meta": {"OBJECT_NAME": "SAUDISAT 5A", "OBJECT_ID": "2018-102A", "EPOCH": "2025-12-13T17:01:08.622912", "MEAN_MOTION": 15.25674416, "ECCENTRICITY": 0.00117261, "INCLINATION": 97.3356, "RA_OF_ASC_NODE": 47.8814, "ARG_OF_PERICENTER": 73.3474, "MEAN_ANOMALY": 286.9051, "EPHEMERIS_TYPE": 0, "CLASSIFICATION_TYPE": "U", "NORAD_CAT_ID": 43831, "ELEMENT_SET_NO": 999, "REV_AT_EPOCH": 38737, "BSTAR": 0.00031566387, "MEAN_MOTION_DOT": 7.983e-05, "MEAN_MOTION_DDOT": 0}, "tle": {"line1": "1 43831U 18102A   25347.70912758  .00007983  00000+0  31566-3 0  9991", "line2": "2 43831  97.3356  47.8814 0011726  73.3474 286.9051 15.25674416387371"}}, "geometry": {"type": "Point", "coordinates": [-5.976671222223998, 81.00285423428635]}}, {"type": "Feature", "properties": {"norad_id": 43833, "name": "SAUDISAT 5B", "group": "resource", "lat": 40.38181480810876, "lon": -122.48466743154545, "alt_km": 481.06876362474304, "timestamp": "2025-12-14T07:33:19.135703+00:00", "meta": {"OBJECT_NAME": "SAUDISAT 5B", "OBJECT_ID": "2018-102C", "EPOCH": "2025-12-13T15:12:41.899392", "MEAN_MOTION": 15.26024581, "ECCENTRICITY": 0.00124572, "INCLINATION": 97.345, "RA_OF_ASC_NODE": 50.5476, "ARG_OF_PERICENTER": 75.7757, "MEAN_ANOMALY": 284.4865, "EPHEMERIS_TYPE": 0, "CLASSIFICATION_TYPE": "U", "NORAD_CAT_ID": 43833, "ELEMENT_SET_NO": 999, "REV_AT_EPOCH": 38747, "BSTAR": 0.00028443836, "MEAN_MOTION_DOT": 7.263e-05, "MEAN_MOTION_DDOT": 0}, "tle": {"line1": "1 43833U 18102C   25347.63381828  .00007263  00000+0  28444-3 0  9995", "line2": "2 43833  97.3450  50.5476 0012457  75.7757 284.4865 15.26024581387475"}}, "geometry": {"type": "Point", "coordinates": [-122.48466743154545, 40.38181480810876]}}]}